{
  "norad_id": 59036,
  "name": "STARLINK-31217",
  "history": [
    {
      "epoch": "2026-03-28T20:00:01.999872Z",
      "apogee_km": 484.12440295028955,
      "perigee_km": 482.10088320555315,
      "latitude_deg": 11.117981233306407,
      "longitude_deg": -137.24622581237847,
      "height_km": 482.3249628132905,
      "semi_major_axis_km": 6861.249643077921,
      "eccentricity": 0.00014746,
      "inclination_deg": 43.0,
      "raan_deg": 181.1077,
      "arg_perigee_deg": 264.9254,
      "mean_anomaly_deg": 258.6821,
      "mean_motion_rev_day": 15.27558778
    },
    {
      "epoch": "2026-03-29T04:00:01.999584Z",
      "apogee_km": 484.1420180803734,
      "perigee_km": 482.13029279119837,
      "latitude_deg": -12.843054758807728,
      "longitude_deg": 126.71118032749678,
      "height_km": 484.9175315977885,
      "semi_major_axis_km": 6861.273155435785,
      "eccentricity": 0.0001466,
      "inclination_deg": 43.0001,
      "raan_deg": 179.2247,
      "arg_perigee_deg": 256.4539,
      "mean_anomaly_deg": 302.39,
      "mean_motion_rev_day": 15.27550926
    },
    {
      "epoch": "2026-03-30T00:00:01.999296Z",
      "apogee_km": 484.04362959603077,
      "perigee_km": 482.093674949655,
      "latitude_deg": 40.88019133965889,
      "longitude_deg": 99.72501201558626,
      "height_km": 486.65272945690816,
      "semi_major_axis_km": 6861.205652272843,
      "eccentricity": 0.0001421,
      "inclination_deg": 43.0006,
      "raan_deg": 174.5179,
      "arg_perigee_deg": 269.2816,
      "mean_anomaly_deg": 197.6479,
      "mean_motion_rev_day": 15.27573469
    },
    {
      "epoch": "2026-03-30T05:48:42.523776Z",
      "apogee_km": 484.3930127145986,
      "perigee_km": 481.8145584273816,
      "latitude_deg": 2.397756505218211e-05,
      "longitude_deg": -101.6658646018972,
      "height_km": 482.7315420948835,
      "semi_major_axis_km": 6861.24078557099,
      "eccentricity": 0.0001879,
      "inclination_deg": 42.9977,
      "raan_deg": 173.148,
      "arg_perigee_deg": 276.6403,
      "mean_anomaly_deg": 83.4235,
      "mean_motion_rev_day": 15.27561736
    },
    {
      "epoch": "2026-03-30T13:39:29.500416Z",
      "apogee_km": 484.1910721664899,
      "perigee_km": 481.9864231092588,
      "latitude_deg": -2.8243554900599025e-05,
      "longitude_deg": 138.47050460592635,
      "height_km": 482.58599097528315,
      "semi_major_axis_km": 6861.2257476378745,
      "eccentricity": 0.00016066,
      "inclination_deg": 42.9979,
      "raan_deg": 171.3024,
      "arg_perigee_deg": 284.6823,
      "mean_anomaly_deg": 75.385,
      "mean_motion_rev_day": 15.27566758
    },
    {
      "epoch": "2026-03-31T11:37:40.394784Z",
      "apogee_km": 483.70063219651547,
      "perigee_km": 482.3701136499576,
      "latitude_deg": 2.699584886316399e-06,
      "longitude_deg": 162.8547823594832,
      "height_km": 483.03475614380335,
      "semi_major_axis_km": 6861.172372923236,
      "eccentricity": 9.696e-05,
      "inclination_deg": 42.999,
      "raan_deg": 166.1343,
      "arg_perigee_deg": 250.3925,
      "mean_anomaly_deg": 109.6822,
      "mean_motion_rev_day": 15.27584583
    },
    {
      "epoch": "2026-04-01T11:10:02.316576Z",
      "apogee_km": 483.9855769850474,
      "perigee_km": 482.1604951154577,
      "latitude_deg": -1.747108393414034e-05,
      "longitude_deg": 163.2570916063452,
      "height_km": 482.82246114276893,
      "semi_major_axis_km": 6861.210036050253,
      "eccentricity": 0.000133,
      "inclination_deg": 43.0004,
      "raan_deg": 160.5947,
      "arg_perigee_deg": 271.7124,
      "mean_anomaly_deg": 88.3575,
      "mean_motion_rev_day": 15.27572005
    },
    {
      "epoch": "2026-04-02T10:42:19.252224Z",
      "apogee_km": 483.7218275611913,
      "perigee_km": 482.1458395907175,
      "latitude_deg": -4.0385018844219574e-05,
      "longitude_deg": 163.6814300861765,
      "height_km": 482.93596295426715,
      "semi_major_axis_km": 6861.070833575954,
      "eccentricity": 0.00011485,
      "inclination_deg": 43.0027,
      "raan_deg": 155.0563,
      "arg_perigee_deg": 253.3779,
      "mean_anomaly_deg": 106.6946,
      "mean_motion_rev_day": 15.27618494
    }
  ]
}